H1 CPF 01  gfz 2021 09 29 00  7713 tandemx   
H2 1003001  6202 36605    2021 09 28 12 59 42 2021 10 03 00 00 42   120 1 1  0 0 0
H9
10 0 59488  69102.000000  0   -6545625.612   2120373.514   -361421.057
10 0 59488  69222.000000  0   -6388361.780   2255874.661  -1259610.626
10 0 59488  69342.000000  0   -6117565.573   2348244.394  -2135653.031
10 0 59488  69462.000000  0   -5738841.827   2393966.331  -2974174.726
10 0 59488  69582.000000  0   -5259735.601   2390461.027  -3760494.456
10 0 59488  69702.000000  0   -4689570.824   2336159.154  -4480881.625
10 0 59488  69822.000000  0   -4039257.579   2230553.067  -5122793.208
10 0 59488  69942.000000  0   -3321073.164   2074226.239  -5675084.916
10 0 59488  70062.000000  0   -2548423.757   1868860.378  -6128194.770
10 0 59488  70182.000000  0   -1735589.988   1617220.141  -6474298.695
10 0 59488  70302.000000  0    -897461.021   1323115.633  -6707433.270
10 0 59488  70422.000000  0     -49265.156    991344.108  -6823587.396
10 0 59488  70542.000000  0     793700.313    627612.593  -6820763.124
10 0 59488  70662.000000  0    1616338.076    238441.911  -6699008.576
10 0 59488  70782.000000  0    2404016.046   -168947.777  -6460416.819
10 0 59488  70902.000000  0    3142821.779   -586766.904  -6109093.925
10 0 59488  71022.000000  0    3819805.596  -1006800.952  -5651095.249
10 0 59488  71142.000000  0    4423206.355  -1420566.764  -5094331.377
10 0 59488  71262.000000  0    4942660.065  -1819480.306  -4448443.850
10 0 59488  71382.000000  0    5369384.829  -2195031.736  -3724648.953
10 0 59488  71502.000000  0    5696338.874  -2538964.058  -2935552.251
10 0 59488  71622.000000  0    5918347.787  -2843451.975  -2094934.849
10 0 59488  71742.000000  0    6032196.435  -3101276.569  -1217514.763
10 0 59488  71862.000000  0    6036683.684  -3305991.442   -318688.330
10 0 59488  71982.000000  0    5932637.497  -3452076.408    585744.650
10 0 59488  72102.000000  0    5722889.853  -3535074.582   1479865.492
10 0 59488  72222.000000  0    5412210.631  -3551708.644   2347927.187
10 0 59488  72342.000000  0    5007200.279  -3499972.047   3174640.308
10 0 59488  72462.000000  0    4516147.700  -3379194.315   3945449.420
10 0 59488  72582.000000  0    3948856.465  -3190078.054   4646793.749
10 0 59488  72702.000000  0    3316442.825  -2934708.907   5266349.136
10 0 59488  72822.000000  0    2631109.804  -2616535.497   5793243.667
10 0 59488  72942.000000  0    1905905.711  -2240321.667   6218244.764
10 0 59488  73062.000000  0    1154470.740  -1812073.009   6533915.600
10 0 59488  73182.000000  0     390777.233  -1338938.546   6734739.235
10 0 59488  73302.000000  0    -371131.349   -829089.216   6817209.120
10 0 59488  73422.000000  0   -1117398.155   -291575.695   6779885.761
10 0 59488  73542.000000  0   -1834603.761    263832.022   6623420.094
10 0 59488  73662.000000  0   -2510006.575    826821.742   6350542.948
10 0 59488  73782.000000  0   -3131769.327   1386729.605   5966020.615
10 0 59488  73902.000000  0   -3689168.274   1932741.163   5476577.172
10 0 59488  74022.000000  0   -4172782.564   2454100.389   4890783.699
10 0 59488  74142.000000  0   -4574659.566   2940323.356   4218913.939
10 0 59488  74262.000000  0   -4888452.299   3381410.487   3472767.442
10 0 59488  74382.000000  0   -5109525.516   3768054.220   2665464.485
10 0 59488  74502.000000  0   -5235028.869   4091837.695   1811215.251
10 0 59488  74622.000000  0   -5263935.282   4345419.329    925065.853
10 0 59488  74742.000000  0   -5197041.268   4522697.465     22625.931
10 0 59488  74862.000000  0   -5036930.340   4618950.468   -880213.924
10 0 59488  74982.000000  0   -4787900.868   4630950.885  -1767571.510
10 0 59488  75102.000000  0   -4455857.926   4557048.599  -2623862.012
10 0 59488  75222.000000  0   -4048173.707   4397220.100  -3434078.491
10 0 59488  75342.000000  0   -3573520.074   4153084.643  -4184057.846
10 0 59488  75462.000000  0   -3041678.961   3827887.603  -4860726.514
10 0 59488  75582.000000  0   -2463336.591   3426452.395  -5452321.954
10 0 59488  75702.000000  0   -1849866.700   2955103.852  -5948589.123
10 0 59488  75822.000000  0   -1213104.931   2421562.618  -6340948.850
10 0 59488  75942.000000  0    -565120.745   1834813.695  -6622634.209
10 0 59488  76062.000000  0      82008.311   1204953.693  -6788795.821
10 0 59488  76182.000000  0     716416.253    543018.099  -6836576.346
10 0 59488  76302.000000  0    1326661.330   -139208.259  -6765155.660
10 0 59488  76422.000000  0    1901928.041   -829396.998  -6575762.302
10 0 59488  76542.000000  0    2432213.764  -1514892.975  -6271654.109
10 0 59488  76662.000000  0    2908500.184  -2182940.388  -5858068.374
10 0 59488  76782.000000  0    3322906.221  -2820915.034  -5342142.316
10 0 59488  76902.000000  0    3668821.981  -3416562.724  -4732801.748
10 0 59488  77022.000000  0    3941017.576  -3958235.367  -4040615.614
10 0 59488  77142.000000  0    4135726.044  -4435120.252  -3277623.162
10 0 59488  77262.000000  0    4250700.429  -4837460.481  -2457133.230
10 0 59488  77382.000000  0    4285242.086  -5156760.837  -1593496.527
10 0 59488  77502.000000  0    4240196.870  -5385973.217   -701854.404
10 0 59488  77622.000000  0    4117920.515  -5519655.449    202130.420
10 0 59488  77742.000000  0    3922212.642  -5554100.126   1102555.416
10 0 59488  77862.000000  0    3658221.667  -5487429.499   1983566.921
10 0 59488  77982.000000  0    3332321.179  -5319652.019   2829648.870
10 0 59488  78102.000000  0    2951961.995  -5052681.749   3625903.203
10 0 59488  78222.000000  0    2525504.647  -4690318.799   4358318.267
10 0 59488  78342.000000  0    2062036.366  -4238191.930   5014018.861
10 0 59488  78462.000000  0    1571176.636  -3703664.828   5581493.068
10 0 59488  78582.000000  0    1062876.207  -3095708.634   6050792.778
10 0 59488  78702.000000  0     547213.554  -2424743.752   6413702.816
10 0 59488  78822.000000  0      34194.515  -1702455.922   6663877.784
10 0 59488  78942.000000  0    -466440.967   -941589.992   6796946.733
10 0 59488  79062.000000  0    -945402.546   -155723.251   6810585.965
10 0 59488  79182.000000  0   -1394021.030    640977.437   6704556.852
10 0 59488  79302.000000  0   -1804404.830   1434010.540   6480709.431
10 0 59488  79422.000000  0   -2169578.888   2208802.866   6142952.132
10 0 59488  79542.000000  0   -2483604.100   2950977.187   5697187.775
10 0 59488  79662.000000  0   -2741675.076   3646620.391   5151216.319
10 0 59488  79782.000000  0   -2940195.982   4282547.786   4514605.289
10 0 59488  79902.000000  0   -3076831.784   4846558.860   3798527.261
10 0 59488  80022.000000  0   -3150533.482   5327678.915   3015566.845
10 0 59488  80142.000000  0   -3161536.433   5716380.270   2179499.298
10 0 59488  80262.000000  0   -3111332.254   6004777.402   1305045.565
10 0 59488  80382.000000  0   -3002614.208   6186792.289    407608.524
10 0 59488  80502.000000  0   -2839197.440   6258285.802   -497005.607
10 0 59488  80622.000000  0   -2625916.690   6217150.505  -1392875.166
10 0 59488  80742.000000  0   -2368502.474   6063361.246  -2264254.806
10 0 59488  80862.000000  0   -2073438.105   5798980.145  -3095860.064
10 0 59488  80982.000000  0   -1747804.607   5428122.220  -3873137.659
10 0 59488  81102.000000  0   -1399117.340   4956881.246  -4582520.721
10 0 59488  81222.000000  0   -1035158.035   4393217.818  -5211661.339
10 0 59488  81342.000000  0    -663806.193   3746815.194  -5749638.598
10 0 59488  81462.000000  0    -292872.614   3028904.080  -6187139.956
10 0 59488  81582.000000  0      70060.899   2252059.993  -6516611.450
10 0 59488  81702.000000  0     417791.575   1429980.352  -6732375.885
10 0 59488  81822.000000  0     743633.850    577244.126  -6830721.703
10 0 59488  81942.000000  0    1041544.227   -290943.080  -6809959.743
10 0 59488  82062.000000  0    1306229.976  -1159015.051  -6670448.328
10 0 59488  82182.000000  0    1533240.432  -2011316.587  -6414586.333
10 0 59488  82302.000000  0    1719040.741  -2832378.030  -6046777.103
10 0 59488  82422.000000  0    1861067.024  -3607191.163  -5573362.395
10 0 59488  82542.000000  0    1957761.319  -4321484.002  -5002524.003
10 0 59488  82662.000000  0    2008585.832  -4961985.068  -4344151.839
10 0 59488  82782.000000  0    2014016.489  -5516674.081  -3609683.880
10 0 59488  82902.000000  0    1975515.231  -5975016.503  -2811916.924
10 0 59488  83022.000000  0    1895480.685  -6328174.976  -1964789.615
10 0 59488  83142.000000  0    1777178.241  -6569190.613  -1083140.184
10 0 59488  83262.000000  0    1624652.089  -6693131.494   -182445.478
10 0 59488  83382.000000  0    1442620.179  -6697201.321    721457.760
10 0 59488  83502.000000  0    1236354.084  -6580806.034   1612657.535
10 0 59488  83622.000000  0    1011547.220  -6345577.553   2475457.336
10 0 59488  83742.000000  0     774175.228  -5995349.206   3294661.806
10 0 59488  83862.000000  0     530350.548  -5536088.085   4055850.973
10 0 59488  83982.000000  0     286176.805  -4975785.887   4745638.018
10 0 59488  84102.000000  0      47605.801  -4324310.561   5351906.537
10 0 59488  84222.000000  0    -179698.945  -3593222.397   5864022.230
10 0 59488  84342.000000  0    -390488.754  -2795558.815   6273016.084
10 0 59488  84462.000000  0    -580044.805  -1945593.963   6571734.163
10 0 59488  84582.000000  0    -744278.871  -1058580.179   6754955.933
10 0 59488  84702.000000  0    -879818.074   -150472.653   6819481.405
10 0 59488  84822.000000  0    -984072.711    762358.619   6764184.100
10 0 59488  84942.000000  0   -1055285.093   1663423.763   6590029.247
10 0 59488  85062.000000  0   -1092558.821   2536410.282   6300057.804
10 0 59488  85182.000000  0   -1095868.847   3365478.348   5899336.789
10 0 59488  85302.000000  0   -1066052.093   4135550.140   5394875.770
10 0 59488  85422.000000  0   -1004777.744   4832587.668   4795510.229
10 0 59488  85542.000000  0    -914499.344   5443855.923   4111752.828
99
